SAUDISAT 1C (SO-50)     
1 27607U 02058C   26063.55905927  .00002482  00000+0  30977-3 0  9990
2 27607  64.5519  92.6406 0075153 281.6341  77.6337 14.82758712248942
SAUDISAT 2              
1 28371U 04025F   26063.48140209  .00000556  00000+0  13531-3 0  9998
2 28371  98.5495  60.7724 0023530 257.9132 101.9428 14.56611381150503
SAUDISAT 3              
1 31118U 07012B   26063.46492719  .00000588  00000+0  10319-3 0  9990
2 31118  98.1341  13.8728 0014185 195.6399 164.4372 14.71348387 12345
PISAT                   
1 41784U 16059B   26063.51143081  .00001531  00000+0  26895-3 0  9997
2 41784  97.8189  68.4778 0029129 177.1121 183.0258 14.68758686504376
FLYING LAPTOP           
1 42831U 17042G   26063.84324821  .00005155  00000+0  41230-3 0  9999
2 42831  97.4254 223.7338 0018665 111.1672 249.1549 15.00479867470804
SALSAT                  
1 46495U 20068K   26063.50003082  .00014646  00000+0  53709-3 0  9996
2 46495  97.8848  60.3287 0008688 318.7431  41.3149 15.28060764299367
